COSMOS 2498             
1 39763U 14028C   25215.59818441  .00000015  00000+0  39119-4 0  9990
2 39763  82.4489 307.8345 0021507  49.6333 310.6620 12.42966604508098
COSMOS 2499 (RS-47)     
1 39765U 14028E   25215.63357659  .00000016  00000+0  15122-4 0  9995
2 39765  82.4488 106.7339 0232369  27.3908 333.9222 12.82894130524305
HODOYOSHI-4             
1 40011U 14033B   25215.53894945  .00001215  00000+0  14137-3 0  9996
2 40011  97.5515  50.8837 0022630 278.7959  81.0695 14.86877934601587
UNISAT-6                
1 40012U 14033C   25215.38265522  .00002840  00000+0  32828-3 0  9995
2 40012  97.7482  10.0728 0048256  36.2551 324.1918 14.85515123598938
DEIMOS-2                
1 40013U 14033D   25215.58232170  .00001321  00000+0  13498-3 0  9996
2 40013  97.6267  95.6595 0001103  62.8149 297.3182 14.92219930590333
BUGSAT-1 (TITA)         
1 40014U 14033E   25215.57213345  .00004149  00000+0  24797-3 0  9994
2 40014  98.0712 285.1854 0030864 179.9026 180.2214 15.11299821607792
SAUDISAT 4              
1 40016U 14033G   25215.39138139  .00000681  00000+0  97813-4 0  9990
2 40016  97.7140   8.5367 0046102  29.3718 331.0070 14.78817798599099
APRIZESAT 9             
1 40018U 14033J   25215.35797173  .00000912  00000+0  14277-3 0  9996
2 40018  97.8611 352.3411 0067838 141.3312 219.2782 14.73548798596741
BRITE-CA1 (TORONTO)     
1 40020U 14033L   25215.37328611  .00001211  00000+0  19307-3 0  9990
2 40020  97.9323 346.1883 0079233 213.4712 146.1474 14.71713600595453
DUCHIFAT-1              
1 40021U 14033M   25215.47919270  .00020519  00000+0  69461-3 0  9997
2 40021  98.0946 234.6653 0010365 124.2999 235.9222 15.30584962606713
NANOSATC-BR1            
1 40024U 14033Q   25215.48224671  .00011207  00000+0  53118-3 0  9991
2 40024  98.0923 217.2689 0004675 181.8474 178.2742 15.19488429605545
QB50P1                  
1 40025U 14033R   25215.51296681  .00007362  00000+0  44195-3 0  9998
2 40025  98.0858 201.1967 0009165 220.4608 139.5940 15.11211704604936
DTUSAT-2                
1 40030U 14033W   25215.41114911  .00007039  00000+0  45070-3 0  9992
2 40030  98.0585 189.9161 0007848 226.7114 133.3459 15.08882702604660
FLOCK 1C-4              
1 40031U 14033X   25215.28332316  .00062750  00000+0  13158-2 0  9991
2 40031  98.0883 230.1430 0007066 138.3981 221.7804 15.45159105605990
QB50P2                  
1 40032U 14033Y   25215.42859810  .00006014  00000+0  38493-3 0  9992
2 40032  98.0463 189.5132 0009011 164.4435 195.7071 15.08951517604640
PERSEUS-M1              
1 40039U 14033AF  25215.55051823  .00001749  00000+0  16998-3 0  9997
2 40039  97.9282 150.5614 0010488 270.9620  89.0398 14.93899603603181
POLYITAN-1              
1 40042U 14033AJ  25215.49692136  .00011515  00000+0  53934-3 0  9995
2 40042  98.1054 209.7875 0010575 160.9704 199.1926 15.19852490605127
TIGRISAT                
1 40043U 14033AK  25215.38706879  .00002018  00000+0  24803-3 0  9995
2 40043  97.7416   8.9290 0052014  37.9258 322.5601 14.83174583598488
AISAT                   
1 40054U 14034B   25215.25845111  .00006949  00000+0  55408-3 0  9999
2 40054  98.2733 101.1624 0013566 188.6072 171.4919 15.00606733599393
CANX-4                  
1 40055U 14034C   25215.50530980  .00000915  00000+0  12754-3 0  9997
2 40055  98.3569  73.4814 0012070 315.9194  44.1054 14.80322972597518
CANX-5                  
1 40056U 14034D   25215.57479170  .00000916  00000+0  12751-3 0  9996
2 40056  98.3571  73.5788 0012074 315.8640  44.1606 14.80336978588336
VELOX-I                 
1 40057U 14034E   25215.58870644  .00003379  00000+0  32640-3 0  9994
2 40057  98.2859  98.0739 0006857 232.0943 127.9656 14.93556167599123
GONETS-M 10             
1 40063U 14036C   25215.52307167  .00000014  00000+0  29914-4 0  9996
2 40063  82.5131 144.9886 0022666 112.4782 247.8701 12.42934627502783
METEOR-M 2              
1 40069U 14037A   25215.53066448  .00000141  00000+0  83968-4 0  9998
2 40069  98.4718 198.2533 0004677 233.1140 126.9610 14.21314962574191
DX1                     
1 40071U 14037C   25215.55663456  .00001657  00000+0  18571-3 0  9995
2 40071  98.3447 154.2344 0006438 216.7832 143.2942 14.88330456598832
UKUBE-1                 
1 40074U 14037F   25215.45433576  .00008607  00000+0  59190-3 0  9999
2 40074  98.3965 182.5949 0002967 125.6075 234.5427 15.06199219600607
GAOFEN-2                
1 40118U 14049A   25215.54723138  .00001258  00000+0  17263-3 0  9997
2 40118  98.0578 274.3743 0007699 174.1726 185.9576 14.80164131592233
BRITE-PL2 (HEWELIUSZ)   
1 40119U 14049B   25215.25466800  .00002252  00000+0  22307-3 0  9996
2 40119  97.8930 320.6223 0015990  84.5987 275.7055 14.92767140593982
CBERS 4                 
1 40336U 14079A   25215.54698847  .00000093  00000+0  46949-4 0  9990
2 40336  98.3503 277.9016 0001447 126.7834 233.3485 14.35524697558388
SMAP                    
1 40376U 15003A   25215.54138693  .00000488  00000+0  10353-3 0  9997
2 40376  98.1290 222.1087 0001506  93.1219 267.0155 14.63364050561167
GONETS-M 11             
1 40552U 15020A   25215.52378855  .00000041  00000+0  22819-3 0  9991
2 40552  82.4819 228.8868 0015642 341.4373  18.6134 12.42897406469279
GONETS-M 12             
1 40553U 15020B   25215.49951282  .00000002  00000+0 -58898-4 0  9994
2 40553  82.4854 229.9400 0013989 324.8900  35.1256 12.42858842469265
GONETS-M 13             
1 40554U 15020C   25215.55071368  .00000043  00000+0  24280-3 0  9991
2 40554  82.4815 228.6203 0012162 310.0975  49.9037 12.42896613469247
DMC3-FM1                
1 40715U 15032A   25215.60232081  .00000576  00000+0  73387-4 0  9994
2 40715  97.6914  87.4576 0006327  32.6458 327.5148 14.85142653542761
DMC3-FM2                
1 40716U 15032B   25215.62432526  .00000583  00000+0  74103-4 0  9998
2 40716  97.6970  88.8326 0007052  36.2018 323.9674 14.85139980542763
DMC3-FM3                
1 40717U 15032C   25215.64649460  .00000599  00000+0  76088-4 0  9999
2 40717  97.7022  90.3994 0006298  37.7504 322.4152 14.85143622542773
CARBONITE 1 (CBNT-1)    
1 40718U 15032D   25215.55634114  .00001743  00000+0  22599-3 0  9999
2 40718  97.6447  42.4336 0013406 255.3743 104.5985 14.81947319542273
DEORBITSAIL             
1 40719U 15032E   25215.53666165  .00005616  00000+0  48674-3 0  9994
2 40719  97.6370  73.8804 0010711 197.9570 162.1275 14.97445068543603
2015-049G               
1 40905U 15049G   25215.55653313  .00015345  00000+0  31400-3 0  9991
2 40905  97.4996 240.0278 0006106 311.8157  48.2570 15.46193656547071
LILACSAT-2              
1 40908U 15049K   25215.53476811  .00010885  00000+0  27433-3 0  9993
2 40908  97.5052 237.2443 0007582 333.1432  26.9421 15.40039436546685
COSMOS 2507             
1 40920U 15050A   25215.59935531  .00000026  00000+0  11901-3 0  9993
2 40920  82.4906 277.3715 0008369 327.9573  32.0997 12.42913422447409
COSMOS 2508             
1 40921U 15050B   25215.55102014  .00000031  00000+0  15456-3 0  9997
2 40921  82.4857 276.0265 0013488   2.6275 357.4874 12.42899397447384
COSMOS 2509             
1 40922U 15050C   25215.57263009  .00000014  00000+0  33248-4 0  9993
2 40922  82.4863 276.0994 0014416  21.3715 338.7964 12.42920936447421
LQSAT                   
1 40958U 15057A   25215.56936894  .00000614  00000+0  95633-4 0  9999
2 40958  97.6569 220.0902 0016222 219.5824 140.4203 14.76143070528449
LINGQIAO VIDEO A        
1 40959U 15057B   25215.58188050  .00000690  00000+0  10532-3 0  9993
2 40959  97.6534 221.4362 0016031 217.7712 142.2374 14.76704786528526
LINGQIAO VIDEO B        
1 40960U 15057C   25215.57665220  .00000702  00000+0  10680-3 0  9991
2 40960  97.6520 222.6514 0016182 218.0008 142.0062 14.76778359528567
JILIN-1                 
1 40961U 15057D   25215.60080460  .00000820  00000+0  12155-3 0  9993
2 40961  97.6494 225.9739 0016257 212.5475 147.4736 14.77486411528702
FOX-1A (AO-85)          
1 40967U 15058D   25215.29966630  .00001959  00000+0  18533-3 0  9997
2 40967  64.7744 185.0727 0153248 177.4384 182.7549 14.88356839 66213
SINOD-D 1               
1 40968U 15058E   25215.30725205  .00002923  00000+0  24911-3 0  9990
2 40968  64.7751 171.8415 0142707 176.3435 183.8758 14.92272130 69169
ELEKTRO-L 2             
1 41105U 15074A   25215.40041499 -.00000112  00000+0  00000+0 0  9997
2 41105   5.8885  74.4523 0001196 157.0845 210.3336  1.00270280 35320
DAMPE                   
1 41173U 15078A   25215.56103801  .00001403  00000+0  51509-4 0  9997
2 41173  97.4501 214.8266 0013851 119.1032 241.1597 15.29579491535978
ORBCOMM FM114           
1 41179U 15081A   25215.62090101  .00000477  00000+0  13876-3 0  9996
2 41179  47.0033  62.8047 0002292 215.8359 144.2373 14.58269441511393
ORBCOMM FM110           
1 41182U 15081D   25215.54467457  .00000796  00000+0  20723-3 0  9996
2 41182  47.0023  62.7056 0001835  47.4059 312.6981 14.58208624511250
ORBCOMM FM112           
1 41184U 15081F   25215.58442509  .00000772  00000+0  20161-3 0  9993
2 41184  47.0007 331.4155 0002169 217.3821 142.6914 14.58328803512582
ORBCOMM FM113           
1 41185U 15081G   25215.56115667  .00000732  00000+0  19327-3 0  9992
2 41185  47.0023 331.8560 0002003 232.1153 127.9551 14.58296509512563
ORBCOMM FM108           
1 41187U 15081J   25215.37979950  .00000366  00000+0  11519-3 0  9994
2 41187  47.0036 244.0944 0002527 199.1606 160.9184 14.58214731513686
ORBCOMM FM117           
1 41188U 15081K   25215.41448821  .00000346  00000+0  11078-3 0  9996
2 41188  46.9998 242.6762 0003267 203.5523 156.5214 14.58218116513736
ORBCOMM FM116           
1 41189U 15081L   25215.53841149  .00000770  00000+0  20134-3 0  9994
2 41189  47.0038 331.9220 0001460 349.7735  10.3121 14.58296904512561
CHUBUSAT-2              
1 41338U 16012B   25215.43753444  .00004972  00000+0  24542-3 0  9999
2 41338  30.9978 239.6133 0009732  82.2869 277.8876 15.16214183520071
